STARLINK-1527           
1 46048U 20055X   22338.27575174 -.00000164  00000+0  79107-5 0  9990
2 46048  53.0560  65.0907 0001239  60.8389 299.2724 15.06392323128942
STARLINK-1530           
1 46049U 20055Y   22338.27207095  .00000593  00000+0  58745-4 0  9994
2 46049  53.0553  65.1054 0001613  51.2954 308.8179 15.06389354128926
STARLINK-1540           
1 46051U 20055AA  22338.24257922 -.00000605  00000+0 -21717-4 0  9993
2 46051  53.0573  65.2363 0001460  69.8760 290.2386 15.06394813128947
STARLINK-1541           
1 46052U 20055AB  22337.69705834  .00000341  00000+0  41790-4 0  9990
2 46052  53.0568  67.6954 0001357  75.5836 284.5303 15.06387218129348
STARLINK-1543           
1 46053U 20055AC  22338.29786889  .00000130  00000+0  27648-4 0  9999
2 46053  53.0550  64.9967 0001555  46.2920 313.8198 15.06390919128948
STARLINK-1548           
1 46054U 20055AD  22338.37157705  .00001686  00000+0  13205-3 0  9998
2 46054  53.0557  64.6654 0001374  81.9402 278.1743 15.06400363128939
STARLINK-1554           
1 46055U 20055AE  22338.22414002 -.00000072  00000+0  14034-4 0  9990
2 46055  53.0568  65.3037 0001485  74.9933 285.1220 15.06404952128902
STARLINK-1561           
1 46056U 20055AF  22337.97994153 -.00002298  00000+0 -13542-3 0  9997
2 46056  53.0571  66.4144 0001475  63.6525 296.4615 15.06394313128888
STARLINK-1564           
1 46058U 20055AH  22337.99192938 -.00000750  00000+0 -31474-4 0  9998
2 46058  53.0570  66.3623 0001393  76.1708 283.9435 15.06398829128888
STARLINK-1570           
1 46059U 20055AJ  22338.39738334  .00000920  00000+0  80637-4 0  9992
2 46059  53.0562  64.5469 0001548  66.9220 293.1932 15.06401360128943
STARLINK-1572           
1 46060U 20055AK  22338.26100758  .00003529  00000+0  25580-3 0  9996
2 46060  53.0555  65.1535 0001448  75.4660 284.6490 15.06381052128927
STARLINK-1573           
1 46061U 20055AL  22338.25362795  .00000529  00000+0  54414-4 0  9993
2 46061  53.0572  65.1959 0001397  56.9174 303.1949 15.06401980128923
STARLINK-1574           
1 46062U 20055AM  22337.68968819  .00004784  00000+0  33981-3 0  9991
2 46062  53.0546  67.7031 0001826  51.4903 308.6250 15.06402374129330
STARLINK-1577           
1 46063U 20055AN  22338.28311807 -.00001620  00000+0 -89858-4 0  9991
2 46063  53.0560  65.0535 0001487  69.8005 290.3144 15.06406486128927
STARLINK-1583           
1 46064U 20055AP  22338.38263785 -.00000596  00000+0 -21096-4 0  9995
2 46064  53.0568  64.6082 0001530  58.0523 302.0615 15.06398954128948
STARLINK-1515           
1 46065U 20055AQ  22337.91174247  .00000697  00000+0  65674-4 0  9998
2 46065  53.0553  46.7327 0001563  61.1719 298.9427 15.06398771129171
STARLINK-1525           
1 46066U 20055AR  22338.44714249  .00002226  00000+0  16828-3 0  9996
2 46066  53.0556  44.3239 0001568  63.4470 296.6679 15.06401708129220
STARLINK-1529           
1 46067U 20055AS  22337.91911804 -.00000418  00000+0 -91317-5 0  9995
2 46067  53.0574  46.6804 0001731  61.6084 298.5079 15.06394555129144
STARLINK-1532           
1 46068U 20055AT  22338.46093739  .00000756  00000+0  69634-4 0  9994
2 46068  53.0559  44.2469 0001880  45.1342 314.9799 15.06398432129227
STARLINK-1533           
1 46069U 20055AU  22338.47663180 -.00000572  00000+0 -19541-4 0  9999
2 46069  53.0567  44.1908 0001176  75.8383 284.2736 15.06393992129234
STARLINK-1536           
1 46070U 20055AV  22338.22598696  .00000073  00000+0  23764-4 0  9999
2 46070  53.0585  45.3185 0001124  66.8651 293.2457 15.06391239129194
STARLINK-1538           
1 46071U 20055AW  22337.51460512  .00000204  00000+0  32570-4 0  9997
2 46071  53.0574  48.5084 0001513  59.8040 300.3099 15.06399034129623
STARLINK-1539           
1 46072U 20055AX  22337.67215825 -.00001106  00000+0 -55383-4 0  9991
2 46072  53.0559  47.7991 0001391  86.9613 273.1535 15.06396772129635
STARLINK-1542           
1 46073U 20055AY  22338.35132228  .00004026  00000+0  28922-3 0  9993
2 46073  53.0555  44.7434 0001368  60.1389 299.9736 15.06370436129211
STARLINK-1549           
1 46074U 20055AZ  22338.33656363 -.00000792  00000+0 -34268-4 0  9992
2 46074  53.0562  44.8075 0001628  60.8916 299.2236 15.06406952129215
STARLINK-1551           
1 46075U 20055BA  22338.16333182  .00000885  00000+0  78312-4 0  9994
2 46075  53.0587  45.5937 0001662  48.7121 311.4011 15.06390580129182
STARLINK-1552           
1 46076U 20055BB  22338.45451666 -.00000419  00000+0 -92462-5 0  9993
2 46076  53.0573  44.2860 0001736  46.9945 313.1190 15.06402102129221
STARLINK-1559           
1 46077U 20055BC  22338.23704286  .00000377  00000+0  44225-4 0  9993
2 46077  53.0560  45.2667 0001488  59.8913 300.2224 15.06399981129197
STARLINK-1563           
1 46078U 20055BD  22338.34763211  .00000224  00000+0  33982-4 0  9998
2 46078  53.0562  44.7622 0002021  41.0621 319.0519 15.06392640129211
STARLINK-1566           
1 46079U 20055BE  22337.67678109 -.00001530  00000+0 -83822-4 0  9996
2 46079  53.0569  47.7779 0001742  61.6355 298.4809 15.06400796129647
STARLINK-1568           
1 46080U 20055BF  22338.16607301 -.00000176  00000+0  70672-5 0  9993
2 46080  53.0585  45.5732 0001708  50.1915 309.9224 15.06395389129188
STARLINK-1571           
1 46081U 20055BG  22338.33288443  .00000752  00000+0  69401-4 0  9991
2 46081  53.0578  44.8185 0002560  31.7049 328.4094 15.06398882129200
STARLINK-1578           
1 46082U 20055BH  22338.35499905  .00002061  00000+0  15727-3 0  9997
2 46082  53.0567  44.7379 0001399  74.1931 285.9212 15.06394156129213
STARLINK-1579           
1 46083U 20055BJ  22337.46299838 -.00000629  00000+0 -23371-4 0  9997
2 46083  53.0552  48.7408 0001359  68.9697 291.1437 15.06394786129072
GLOBAL-7                
1 46088U 20055BP  22337.85737346  .00033306  00000+0  45137-3 0  9995
2 46088  52.9994 131.0762 0011445 218.3703 141.6494 15.57318865136812
GLOBAL-8                
1 46089U 20055BQ  22337.81512314  .00028040  00000+0  39718-3 0  9995
2 46089  52.9974 138.7451 0017063 155.0541 205.1297 15.56127849136703
BSAT-4B                 
1 46112U 20056A   22337.88595909 -.00000343  00000+0  00000+0 0  9996
2 46112   0.0692 124.3109 0002298  65.5463 311.6234  1.00270691  8445
MEV-2                   
1 46113U 20056B   22337.39054310 -.00000005  00000+0  00000+0 0  9994
2 46113   0.0310  82.4103 0001280 217.2876 272.1083  1.00270351 67671
GALAXY 30 (G-30)        
1 46114U 20056C   22337.61432531  .00000043  00000+0  00000+0 0  9996
2 46114   0.0081 322.3746 0002199 285.0433 281.1644  1.00273267  8349
STARLINK-1585           
1 46117U 20057A   22338.02694568 -.00000559  00000+0 -18619-4 0  9990
2 46117  53.0562 246.2065 0001623  58.0136 302.1011 15.06400395127395
STARLINK-1588           
1 46118U 20057B   22337.50538070 -.00000087  00000+0  13044-4 0  9990
2 46118  53.0538 268.5309 0001550  65.9848 294.1304 15.06396177127659
STARLINK-1593           
1 46119U 20057C   22338.09144613 -.00000530  00000+0 -16659-4 0  9991
2 46119  53.0548 265.9011 0001761  57.5475 302.5684 15.06403106127127
STARLINK-1601           
1 46120U 20057D   22338.20940541  .00000556  00000+0  56215-4 0  9998
2 46120  53.0539 265.3941 0001740  59.4170 300.6991 15.06397340127149
STARLINK-1602           
1 46121U 20057E   22338.44345389  .00001031  00000+0  88094-4 0  9993
2 46121  53.0548 244.3387 0002027  55.4576 304.6604 15.06403011127458
STARLINK-1604           
1 46122U 20057F   22338.05459576 -.00000165  00000+0  78026-5 0  9998
2 46122  53.0550 226.0690 0001743  61.4839 298.6325 15.06390949127681
STARLINK-1605           
1 46123U 20057G   22338.10620537 -.00000573  00000+0 -19609-4 0  9997
2 46123  53.0538 225.8544 0001652  58.8671 301.2480 15.06383802127689
STARLINK-1614           
1 46124U 20057H   22338.11357349 -.00000140  00000+0  95092-5 0  9997
2 46124  53.0557 225.8090 0001954  57.5308 302.5870 15.06394041127690
STARLINK-1618           
1 46125U 20057J   22338.22781990  .00000584  00000+0  58090-4 0  9990
2 46125  53.0537 265.3083 0001655  63.5564 296.5595 15.06409543127149
STARLINK-1619           
1 46126U 20057K   22338.26838374 -.00000694  00000+0 -27699-4 0  9999
2 46126  53.0542 265.1291 0001627  59.1263 300.9886 15.06394216127155
STARLINK-1621           
1 46127U 20057L   22337.79474254 -.00000445  00000+0 -10993-4 0  9993
2 46127  53.0555 247.2423 0002170  45.8370 314.2797 15.06384190126690
STARLINK-1622           
1 46128U 20057M   22338.41950672 -.00000229  00000+0  35449-5 0  9990
2 46128  53.0553 224.4354 0001646  61.6317 298.4838 15.06392608127731
STARLINK-1623           
1 46129U 20057N   22338.12831612 -.00000366  00000+0 -56543-5 0  9992
2 46129  53.0540 225.7471 0001598  73.1626 286.9538 15.06399521127694
STARLINK-1624           
1 46130U 20057P   22337.69705803  .00000998  00000+0  85871-4 0  9991
2 46130  53.0548 227.6774 0001709  58.3363 301.7792 15.06397887128218
STARLINK-1625           
1 46131U 20057Q   22338.10804273 -.00000267  00000+0  96958-6 0  9990
2 46131  53.0561 245.8310 0001668  61.7863 298.3294 15.06393400127404
STARLINK-1630           
1 46132U 20057R   22338.08039188 -.00000394  00000+0 -75046-5 0  9999
2 46132  53.0551 265.9671 0001989  54.7052 305.4123 15.06405544127128
STARLINK-1637           
1 46133U 20057S   22338.08039966  .00004850  00000+0  34443-3 0  9997
2 46133  53.0548 225.9748 0001597  73.9053 286.2111 15.06385066127685
STARLINK-1638           
1 46134U 20057T   22337.08794330  .00005508  00000+0  38845-3 0  9991
2 46134  53.0530 230.4169 0001744  59.3398 300.7763 15.06394312126878
STARLINK-1639           
1 46135U 20057U   22338.09882225  .00000183  00000+0  31165-4 0  9998
2 46135  53.0550 225.8865 0001733  59.1077 301.0082 15.06401442127683
STARLINK-1643           
1 46136U 20057V   22338.08037251  .00000382  00000+0  44537-4 0  9997
2 46136  53.0537 255.9397 0001859  46.3470 313.7672 15.06392272127266
STARLINK-1586           
1 46137U 20057W   22338.10067021  .00000003  00000+0  19166-4 0  9999
2 46137  53.0546 245.8801 0003003  57.8408 302.2872 15.06394629127405
